[{"OBJECT_NAME":"CELESTIS-17 & SHERPA-FX1","OBJECT_ID":"2021-006CB","EPOCH":"2026-03-09T15:26:05.078112","MEAN_MOTION":15.30994801,"ECCENTRICITY":0.000663,"INCLINATION":97.2397,"RA_OF_ASC_NODE":112.1052,"ARG_OF_PERICENTER":178.1385,"MEAN_ANOMALY":181.9882,"EPHEMERIS_TYPE":0,"CLASSIFICATION_TYPE":"U","NORAD_CAT_ID":47486,"ELEMENT_SET_NO":999,"REV_AT_EPOCH":28406,"BSTAR":0.00024301,"MEAN_MOTION_DOT":7.207e-5,"MEAN_MOTION_DDOT":0},{"OBJECT_NAME":"STARLINK-31354","OBJECT_ID":"2024-027M","EPOCH":"2026-03-09T22:28:26.680224","MEAN_MOTION":15.30185838,"ECCENTRICITY":0.00010263,"INCLINATION":53.1608,"RA_OF_ASC_NODE":308.6501,"ARG_OF_PERICENTER":103.1527,"MEAN_ANOMALY":256.9589,"EPHEMERIS_TYPE":0,"CLASSIFICATION_TYPE":"U","NORAD_CAT_ID":58942,"ELEMENT_SET_NO":999,"REV_AT_EPOCH":11736,"BSTAR":0.00013102381,"MEAN_MOTION_DOT":3.522e-5,"MEAN_MOTION_DDOT":0}]
